start=new Date('2023-05-01T00:00:00.000Z').valueOf();
sats=[{"TIME_SYSTEM":"UTC","CENTER_NAME":"EARTH","CLASSIFICATION_TYPE":"U","TLE_LINE1":"1 54013U 22125BB  23120.74676594  .00002005  00000-0  14401-3 0  9991","LAUNCH_DATE":"2022-10-05","NORAD_CAT_ID":"54013","GP_ID":"230982743","OBJECT_TYPE":"PAYLOAD","OBJECT_ID":"2022-125BB","MEAN_MOTION_DDOT":"0.0000000000000","APOAPSIS":"540.430","REF_FRAME":"TEME","MEAN_MOTION_DOT":"0.00002005","DECAY_DATE":null,"MEAN_ELEMENT_THEORY":"SGP4","RA_OF_ASC_NODE":"210.5162","FILE":"3897545","TLE_LINE2":"2 54013  53.2164 210.5162 0001013 113.7496 246.3602 15.08845249 32058","REV_AT_EPOCH":"3205","MEAN_MOTION":"15.08845249","PERIAPSIS":"539.029","SITE":"AFWTR","ARG_OF_PERICENTER":"113.7496","OBJECT_NAME":"STARLINK-5098","RCS_SIZE":"LARGE","PERIOD":"95.437","INCLINATION":"53.2164","MEAN_ANOMALY":"246.3602","BSTAR":"0.00014401000000","ECCENTRICITY":"0.00010130","ELEMENT_SET_NO":"999","EPOCH":"2023-04-30T17:55:20.577216","SEMIMAJOR_AXIS":"6917.864","COUNTRY_CODE":"US","EPHEMERIS_TYPE":"0"},{"REF_FRAME":"TEME","MEAN_ELEMENT_THEORY":"SGP4","MEAN_MOTION_DOT":"0.00002343","DECAY_DATE":null,"TLE_LINE2":"2 54014  53.2158 211.3857 0001384  89.7368 270.3783 15.08845756 31973","REV_AT_EPOCH":"3197","MEAN_MOTION":"15.08845756","RA_OF_ASC_NODE":"211.3857","FILE":"3897442","TIME_SYSTEM":"UTC","CENTER_NAME":"EARTH","NORAD_CAT_ID":"54014","LAUNCH_DATE":"2022-10-05","TLE_LINE1":"1 54014U 22125BC  23120.54436029  .00002343  00000-0  16523-3 0  9999","CLASSIFICATION_TYPE":"U","OBJECT_ID":"2022-125BC","APOAPSIS":"540.685","MEAN_MOTION_DDOT":"0.0000000000000","GP_ID":"230979451","OBJECT_TYPE":"PAYLOAD","BSTAR":"0.00016523000000","SEMIMAJOR_AXIS":"6917.863","ECCENTRICITY":"0.00013840","ELEMENT_SET_NO":"999","EPOCH":"2023-04-30T13:03:52.729056","EPHEMERIS_TYPE":"0","COUNTRY_CODE":"US","PERIAPSIS":"538.770","SITE":"AFWTR","ARG_OF_PERICENTER":"89.7368","OBJECT_NAME":"STARLINK-5116","PERIOD":"95.437","INCLINATION":"53.2158","MEAN_ANOMALY":"270.3783","RCS_SIZE":"LARGE"},{"ELEMENT_SET_NO":"999","EPOCH":"2023-04-30T12:47:57.976224","ECCENTRICITY":"0.00012810","SEMIMAJOR_AXIS":"6917.864","BSTAR":"0.00047621000000","COUNTRY_CODE":"US","EPHEMERIS_TYPE":"0","SITE":"AFWTR","PERIAPSIS":"538.842","RCS_SIZE":"LARGE","MEAN_ANOMALY":"273.3788","PERIOD":"95.437","INCLINATION":"53.2153","OBJECT_NAME":"STARLINK-5055","ARG_OF_PERICENTER":"86.7351","REF_FRAME":"TEME","FILE":"3897442","RA_OF_ASC_NODE":"211.3144","MEAN_MOTION":"15.08845472","REV_AT_EPOCH":"3197","TLE_LINE2":"2 54015  53.2153 211.3144 0001281  86.7351 273.3788 15.08845472 31976","DECAY_DATE":null,"MEAN_MOTION_DOT":"0.00007300","MEAN_ELEMENT_THEORY":"SGP4","CENTER_NAME":"EARTH","TIME_SYSTEM":"UTC","OBJECT_TYPE":"PAYLOAD","GP_ID":"230980202","APOAPSIS":"540.615","MEAN_MOTION_DDOT":"0.0000000000000","OBJECT_ID":"2022-125BD","LAUNCH_DATE":"2022-10-05","TLE_LINE1":"1 54015U 22125BD  23120.53330991  .00007300  00000-0  47621-3 0  9991","CLASSIFICATION_TYPE":"U","NORAD_CAT_ID":"54015"},{"PERIAPSIS":"539.203","SITE":"AFETR","OBJECT_NAME":"STARLINK-5195","ARG_OF_PERICENTER":"108.8695","RCS_SIZE":"LARGE","MEAN_ANOMALY":"251.2375","PERIOD":"95.437","INCLINATION":"53.2171","BSTAR":"0.00115350000000","ELEMENT_SET_NO":"999","EPOCH":"2023-04-30T21:35:19.722048","ECCENTRICITY":"0.00007210","SEMIMAJOR_AXIS":"6917.836","COUNTRY_CODE":"US","EPHEMERIS_TYPE":"0","TIME_SYSTEM":"UTC","CENTER_NAME":"EARTH","TLE_LINE1":"1 54051U 22136A   23120.89953382  .00018125  00000-0  11535-2 0  9998","LAUNCH_DATE":"2022-10-20","CLASSIFICATION_TYPE":"U","NORAD_CAT_ID":"54051","OBJECT_TYPE":"PAYLOAD","GP_ID":"230985605","APOAPSIS":"540.200","MEAN_MOTION_DDOT":"0.0000000000000","OBJECT_ID":"2022-136A","REF_FRAME":"TEME","DECAY_DATE":null,"MEAN_MOTION_DOT":"0.00018125","MEAN_ELEMENT_THEORY":"SGP4","FILE":"3897705","RA_OF_ASC_NODE":"350.1238","MEAN_MOTION":"15.08854387","REV_AT_EPOCH":"2974","TLE_LINE2":"2 54051  53.2171 350.1238 0000721 108.8695 251.2375 15.08854387 29741"},{"CENTER_NAME":"EARTH","TIME_SYSTEM":"UTC","NORAD_CAT_ID":"54052","TLE_LINE1":"1 54052U 22136B   23120.85165327  .00024791  00000-0  15749-2 0  9996","LAUNCH_DATE":"2022-10-20","CLASSIFICATION_TYPE":"U","APOAPSIS":"540.883","MEAN_MOTION_DDOT":"0.0000000000000","OBJECT_ID":"2022-136B","OBJECT_TYPE":"PAYLOAD","GP_ID":"230986038","REF_FRAME":"TEME","MEAN_ELEMENT_THEORY":"SGP4","DECAY_DATE":null,"MEAN_MOTION_DOT":"0.00024791","MEAN_MOTION":"15.08732312","TLE_LINE2":"2 54052  53.2169 309.9042 0001168 115.4915 244.6198 15.08732312 30316","REV_AT_EPOCH":"3031","FILE":"3897693","RA_OF_ASC_NODE":"309.9042","PERIAPSIS":"539.267","SITE":"AFETR","OBJECT_NAME":"STARLINK-5189","ARG_OF_PERICENTER":"115.4915","MEAN_ANOMALY":"244.6198","INCLINATION":"53.2169","PERIOD":"95.444","RCS_SIZE":"LARGE","BSTAR":"0.00157490000000","SEMIMAJOR_AXIS":"6918.210","ELEMENT_SET_NO":"999","EPOCH":"2023-04-30T20:26:22.842528","ECCENTRICITY":"0.00011680","EPHEMERIS_TYPE":"0","COUNTRY_CODE":"US"},{"RCS_SIZE":"LARGE","MEAN_ANOMALY":"267.8222","INCLINATION":"53.2176","PERIOD":"95.437","OBJECT_NAME":"STARLINK-5176","ARG_OF_PERICENTER":"92.2910","SITE":"AFETR","PERIAPSIS":"538.886","COUNTRY_CODE":"US","EPHEMERIS_TYPE":"0","EPOCH":"2023-04-30T21:30:00.726336","ELEMENT_SET_NO":"999","ECCENTRICITY":"0.00012220","SEMIMAJOR_AXIS":"6917.866","BSTAR":"0.00014278000000","OBJECT_TYPE":"PAYLOAD","GP_ID":"230985633","APOAPSIS":"540.576","MEAN_MOTION_DDOT":"0.0000000000000","OBJECT_ID":"2022-136C","CLASSIFICATION_TYPE":"U","TLE_LINE1":"1 54053U 22136C   23120.89584174  .00001985  00000-0  14278-3 0  9993","LAUNCH_DATE":"2022-10-20","NORAD_CAT_ID":"54053","TIME_SYSTEM":"UTC","CENTER_NAME":"EARTH","FILE":"3897694","RA_OF_ASC_NODE":"350.0995","MEAN_MOTION":"15.08844680","REV_AT_EPOCH":"2974","TLE_LINE2":"2 54053  53.2176 350.0995 0001222  92.2910 267.8222 15.08844680 29749","DECAY_DATE":null,"MEAN_MOTION_DOT":"0.00001985","MEAN_ELEMENT_THEORY":"SGP4","REF_FRAME":"TEME"},{"REF_FRAME":"TEME","REV_AT_EPOCH":"2913","TLE_LINE2":"2 54054  53.2161 353.9217 0001609 105.9699 254.1470 15.08838063 29133","MEAN_MOTION":"15.08838063","RA_OF_ASC_NODE":"353.9217","FILE":"3897442","MEAN_ELEMENT_THEORY":"SGP4","MEAN_MOTION_DOT":"0.00004478","DECAY_DATE":null,"TIME_SYSTEM":"UTC","CENTER_NAME":"EARTH","OBJECT_ID":"2022-136D","MEAN_MOTION_DDOT":"0.0000000000000","APOAPSIS":"540.864","GP_ID":"230979204","OBJECT_TYPE":"PAYLOAD","NORAD_CAT_ID":"54054","CLASSIFICATION_TYPE":"U","TLE_LINE1":"1 54054U 22136D   23120.02736551  .00004478  00000-0  29930-3 0  9998","LAUNCH_DATE":"2022-10-20","SEMIMAJOR_AXIS":"6917.886","ECCENTRICITY":"0.00016090","EPOCH":"2023-04-30T00:39:24.380064","ELEMENT_SET_NO":"999","BSTAR":"0.00029930000000","EPHEMERIS_TYPE":"0","COUNTRY_CODE":"US","SITE":"AFETR","PERIAPSIS":"538.638","PERIOD":"95.438","INCLINATION":"53.2161","MEAN_ANOMALY":"254.1470","RCS_SIZE":"LARGE","ARG_OF_PERICENTER":"105.9699","OBJECT_NAME":"STARLINK-5163"},{"GP_ID":"230953264","OBJECT_TYPE":"PAYLOAD","OBJECT_ID":"2022-136E","MEAN_MOTION_DDOT":"0.0000000000000","APOAPSIS":"540.875","LAUNCH_DATE":"2022-10-20","TLE_LINE1":"1 54055U 22136E   23120.62720126  .00002232  00000-0  15830-3 0  9996","CLASSIFICATION_TYPE":"U","NORAD_CAT_ID":"54055","CENTER_NAME":"EARTH","TIME_SYSTEM":"UTC","RA_OF_ASC_NODE":"351.2722","FILE":"3897422","TLE_LINE2":"2 54055  53.2153 351.2722 0001639  77.4264 282.6912 15.08841278 29703","REV_AT_EPOCH":"2970","MEAN_MOTION":"15.08841278","MEAN_MOTION_DOT":"0.00002232","DECAY_DATE":null,"MEAN_ELEMENT_THEORY":"SGP4","REF_FRAME":"TEME","RCS_SIZE":"LARGE","PERIOD":"95.437","INCLINATION":"53.2153","MEAN_ANOMALY":"282.6912","ARG_OF_PERICENTER":"77.4264","OBJECT_NAME":"STARLINK-5158","SITE":"AFETR","PERIAPSIS":"538.608","COUNTRY_CODE":"US","EPHEMERIS_TYPE":"0","ECCENTRICITY":"0.00016390","EPOCH":"2023-04-30T15:03:10.188864","ELEMENT_SET_NO":"999","SEMIMAJOR_AXIS":"6917.876","BSTAR":"0.00015830000000"},{"CENTER_NAME":"EARTH","TIME_SYSTEM":"UTC","TLE_LINE1":"1 54056U 22136F   23120.62078749  .00001834  00000-0  13325-3 0  9998","CLASSIFICATION_TYPE":"U","LAUNCH_DATE":"2022-10-20","NORAD_CAT_ID":"54056","OBJECT_TYPE":"PAYLOAD","GP_ID":"230953025","MEAN_MOTION_DDOT":"0.0000000000000","APOAPSIS":"540.712","OBJECT_ID":"2022-136F","REF_FRAME":"TEME","DECAY_DATE":null,"MEAN_MOTION_DOT":"0.00001834","MEAN_ELEMENT_THEORY":"SGP4","FILE":"3897422","RA_OF_ASC_NODE":"351.2300","MEAN_MOTION":"15.08845087","REV_AT_EPOCH":"2970","TLE_LINE2":"2 54056  53.2180 351.2300 0001420 104.8099 255.3050 15.08845087 29707","PERIAPSIS":"538.748","SITE":"AFETR","OBJECT_NAME":"STARLINK-5226","ARG_OF_PERICENTER":"104.8099","RCS_SIZE":"LARGE","MEAN_ANOMALY":"255.3050","INCLINATION":"53.2180","PERIOD":"95.437","BSTAR":"0.00013325000000","ELEMENT_SET_NO":"999","EPOCH":"2023-04-30T14:53:56.039136","ECCENTRICITY":"0.00014200","SEMIMAJOR_AXIS":"6917.865","COUNTRY_CODE":"US","EPHEMERIS_TYPE":"0"},{"SITE":"AFETR","PERIAPSIS":"538.999","INCLINATION":"53.2168","PERIOD":"95.439","MEAN_ANOMALY":"252.6412","RCS_SIZE":"LARGE","ARG_OF_PERICENTER":"107.4711","OBJECT_NAME":"STARLINK-5167","SEMIMAJOR_AXIS":"6917.963","ECCENTRICITY":"0.00011970","ELEMENT_SET_NO":"999","EPOCH":"2023-04-30T21:03:29.812896","BSTAR":"0.00036988000000","EPHEMERIS_TYPE":"0","COUNTRY_CODE":"US","TIME_SYSTEM":"UTC","CENTER_NAME":"EARTH","OBJECT_ID":"2022-136H","APOAPSIS":"540.656","MEAN_MOTION_DDOT":"0.0000000000000","GP_ID":"230986046","OBJECT_TYPE":"PAYLOAD","NORAD_CAT_ID":"54058","LAUNCH_DATE":"2022-10-20","TLE_LINE1":"1 54058U 22136H   23120.87742839  .00005599  00000-0  36988-3 0  9997","CLASSIFICATION_TYPE":"U","REF_FRAME":"TEME","REV_AT_EPOCH":"2974","TLE_LINE2":"2 54058  53.2168 349.9875 0001197 107.4711 252.6412 15.08813124 29740","MEAN_MOTION":"15.08813124","RA_OF_ASC_NODE":"349.9875","FILE":"3897694","MEAN_ELEMENT_THEORY":"SGP4","MEAN_MOTION_DOT":"0.00005599","DECAY_DATE":null}];
